{"type": "FeatureCollection", "features": [ {"type": "Feature", "properties": {"norad_id": 31038, "name": "FENGYUN 1C DEB", "group": "fengyun-1c-debris", "lat": 69.90487360186007, "lon": 55.88739052680168, "alt_km": 767.4340648689922, "timestamp": "2025-12-22T22:44:21.255712+00:00", "meta": {"OBJECT_NAME": "FENGYUN 1C DEB", "OBJECT_ID": "1999-025BEG", "EPOCH": "2025-12-21T16:30:24.431328", "MEAN_MOTION": 14.45856493, "ECCENTRICITY": 0.00844001, "INCLINATION": 99.0135, "RA_OF_ASC_NODE": 80.2626, "ARG_OF_PERICENTER": 201.8225, "MEAN_ANOMALY": 157.9361, "EPHEMERIS_TYPE": 0, "CLASSIFICATION_TYPE": "U", "NORAD_CAT_ID": 31038, "ELEMENT_SET_NO": 999, "REV_AT_EPOCH": 98364, "BSTAR": 0.0004331708, "MEAN_MOTION_DOT": 1.555e-05, "MEAN_MOTION_DDOT": 0}, "tle": {"line1": "1 31038U 99025BEG 25355.68778277  .00001555  00000+0  43317-3 0  9998", "line2": "2 31038  99.0135  80.2626 0084400 201.8225 157.9361 14.45856493983645"}}, "geometry": {"type": "Point", "coordinates": [55.88739052680168, 69.90487360186007]}}, {"type": "Feature", "properties": {"norad_id": 31040, "name": "FENGYUN 1C DEB", "group": "fengyun-1c-debris", "lat": 44.1138290537711, "lon": 175.03305891700975, "alt_km": 789.9798062554428, "timestamp": "2025-12-22T22:44:21.255722+00:00", "meta": {"OBJECT_NAME": "FENGYUN 1C DEB", "OBJECT_ID": "1999-025BEJ", "EPOCH": "2025-12-21T18:08:29.193216", "MEAN_MOTION": 14.17682215, "ECCENTRICITY": 0.00627544, "INCLINATION": 98.6585, "RA_OF_ASC_NODE": 345.376, "ARG_OF_PERICENTER": 168.129, "MEAN_ANOMALY": 9.422, "EPHEMERIS_TYPE": 0, "CLASSIFICATION_TYPE": "U", "NORAD_CAT_ID": 31040, "ELEMENT_SET_NO": 999, "REV_AT_EPOCH": 96834, "BSTAR": 0.00024127348, "MEAN_MOTION_DOT": 4.58e-06, "MEAN_MOTION_DDOT": 0}, "tle": {"line1": "1 31040U 99025BEJ 25355.75589344  .00000458  00000+0  24127-3 0  9993", "line2": "2 31040  98.6585 345.3760 0062754 168.1290   9.4220 14.17682215968344"}}, "geometry": {"type": "Point", "coordinates": [175.03305891700975, 44.1138290537711]}}, {"type": "Feature", "properties": {"norad_id": 31041, "name": "FENGYUN 1C DEB", "group": "fengyun-1c-debris", "lat": 21.940695943637024, "lon": 22.214898395080517, "alt_km": 832.844652091203, "timestamp": "2025-12-22T22:44:21.255733+00:00", "meta": {"OBJECT_NAME": "FENGYUN 1C DEB", "OBJECT_ID": "1999-025BEK", "EPOCH": "2025-12-22T12:28:25.236192", "MEAN_MOTION": 14.17918549, "ECCENTRICITY": 0.00874158, "INCLINATION": 99.204, "RA_OF_ASC_NODE": 25.5166, "ARG_OF_PERICENTER": 292.3443, "MEAN_ANOMALY": 66.8484, "EPHEMERIS_TYPE": 0, "CLASSIFICATION_TYPE": "U", "NORAD_CAT_ID": 31041, "ELEMENT_SET_NO": 999, "REV_AT_EPOCH": 95628, "BSTAR": 0.0021061499, "MEAN_MOTION_DOT": 4.426e-05, "MEAN_MOTION_DDOT": 0}, "tle": {"line1": "1 31041U 99025BEK 25356.51973653  .00004426  00000+0  21061-2 0  9991", "line2": "2 31041  99.2040  25.5166 0087415 292.3443  66.8484 14.17918549956287"}}, "geometry": {"type": "Point", "coordinates": [22.214898395080517, 21.940695943637024]}}, {"type": "Feature", "properties": {"norad_id": 31043, "name": "FENGYUN 1C DEB", "group": "fengyun-1c-debris", "lat": 42.66987638309016, "lon": 6.291464187243503, "alt_km": 850.0369516127794, "timestamp": "2025-12-22T22:44:21.255743+00:00", "meta": {"OBJECT_NAME": "FENGYUN 1C DEB", "OBJECT_ID": "1999-025BEM", "EPOCH": "2025-12-22T13:01:30.247680", "MEAN_MOTION": 14.0844397, "ECCENTRICITY": 0.00409524, "INCLINATION": 98.7635, "RA_OF_ASC_NODE": 14.0729, "ARG_OF_PERICENTER": 336.2624, "MEAN_ANOMALY": 175.5416, "EPHEMERIS_TYPE": 0, "CLASSIFICATION_TYPE": "U", "NORAD_CAT_ID": 31043, "ELEMENT_SET_NO": 999, "REV_AT_EPOCH": 96125, "BSTAR": 0.0003528268, "MEAN_MOTION_DOT": 5.66e-06, "MEAN_MOTION_DDOT": 0}, "tle": {"line1": "1 31043U 99025BEM 25356.54271120  .00000566  00000+0  35283-3 0  9999", "line2": "2 31043  98.7635  14.0729 0040952 336.2624 175.5416 14.08443970961252"}}, "geometry": {"type": "Point", "coordinates": [6.291464187243503, 42.66987638309016]}}, {"type": "Feature", "properties": {"norad_id": 31046, "name": "FENGYUN 1C DEB", "group": "fengyun-1c-debris", "lat": 76.35794072719519, "lon": -21.87304721124822, "alt_km": 644.5654948697147, "timestamp": "2025-12-22T22:44:21.255754+00:00", "meta": {"OBJECT_NAME": "FENGYUN 1C DEB", "OBJECT_ID": "1999-025BEQ", "EPOCH": "2025-12-20T21:39:52.562016", "MEAN_MOTION": 14.64082438, "ECCENTRICITY": 0.0045404, "INCLINATION": 98.9685, "RA_OF_ASC_NODE": 115.3082, "ARG_OF_PERICENTER": 77.5729, "MEAN_ANOMALY": 51.1771, "EPHEMERIS_TYPE": 0, "CLASSIFICATION_TYPE": "U", "NORAD_CAT_ID": 31046, "ELEMENT_SET_NO": 999, "REV_AT_EPOCH": 96762, "BSTAR": 0.0021927, "MEAN_MOTION_DOT": 0.00011646, "MEAN_MOTION_DDOT": 0}, "tle": {"line1": "1 31046U 99025BEQ 25354.90269169  .00011646  00000+0  21927-2 0  9990", "line2": "2 31046  98.9685 115.3082 0045404  77.5729  51.1771 14.64082438967627"}}, "geometry": {"type": "Point", "coordinates": [-21.87304721124822, 76.35794072719519]}}, {"type": "Feature", "properties": {"norad_id": 31047, "name": "FENGYUN 1C DEB", "group": "fengyun-1c-debris", "lat": -32.795058411386, "lon": 168.44434150434878, "alt_km": 844.030009604744, "timestamp": "2025-12-22T22:44:21.255764+00:00", "meta": {"OBJECT_NAME": "FENGYUN 1C DEB", "OBJECT_ID": "1999-025BER", "EPOCH": "2025-12-22T12:16:57.847296", "MEAN_MOTION": 14.13857139, "ECCENTRICITY": 0.00261016, "INCLINATION": 98.7012, "RA_OF_ASC_NODE": 353.6831, "ARG_OF_PERICENTER": 150.1278, "MEAN_ANOMALY": 6.368, "EPHEMERIS_TYPE": 0, "CLASSIFICATION_TYPE": "U", "NORAD_CAT_ID": 31047, "ELEMENT_SET_NO": 999, "REV_AT_EPOCH": 96497, "BSTAR": 0.00037194236, "MEAN_MOTION_DOT": 6.64e-06, "MEAN_MOTION_DDOT": 0}, "tle": {"line1": "1 31047U 99025BER 25356.51178064  .00000664  00000+0  37194-3 0  9995", "line2": "2 31047  98.7012 353.6831 0026101 150.1278   6.3680 14.13857139964977"}}, "geometry": {"type": "Point", "coordinates": [168.44434150434878, -32.795058411386]}}, {"type": "Feature", "properties": {"norad_id": 31051, "name": "FENGYUN 1C DEB", "group": "fengyun-1c-debris", "lat": -78.23803402538361, "lon": 75.38854621876713, "alt_km": 928.9221850429194, "timestamp": "2025-12-22T22:44:21.255774+00:00", "meta": {"OBJECT_NAME": "FENGYUN 1C DEB", "OBJECT_ID": "1999-025BEV", "EPOCH": "2025-12-12T21:48:30.367584", "MEAN_MOTION": 14.03033745, "ECCENTRICITY": 0.00534524, "INCLINATION": 98.8183, "RA_OF_ASC_NODE": 17.4591, "ARG_OF_PERICENTER": 135.0078, "MEAN_ANOMALY": 225.5438, "EPHEMERIS_TYPE": 0, "CLASSIFICATION_TYPE": "U", "NORAD_CAT_ID": 31051, "ELEMENT_SET_NO": 999, "REV_AT_EPOCH": 63821, "BSTAR": 0.00016986752, "MEAN_MOTION_DOT": 2.25e-06, "MEAN_MOTION_DDOT": 0}, "tle": {"line1": "1 31051U 99025BEV 25346.90868481  .00000225  00000+0  16987-3 0  9991", "line2": "2 31051  98.8183  17.4591 0053452 135.0078 225.5438 14.03033745638218"}}, "geometry": {"type": "Point", "coordinates": [75.38854621876713, -78.23803402538361]}}, {"type": "Feature", "properties": {"norad_id": 31053, "name": "FENGYUN 1C DEB", "group": "fengyun-1c-debris", "lat": -54.26053296298999, "lon": -73.73478190642646, "alt_km": 1206.8377188975037, "timestamp": "2025-12-22T22:44:21.255784+00:00", "meta": {"OBJECT_NAME": "FENGYUN 1C DEB", "OBJECT_ID": "1999-025BEX", "EPOCH": "2025-12-22T02:25:18.690528", "MEAN_MOTION": 13.75902052, "ECCENTRICITY": 0.03088253, "INCLINATION": 98.7943, "RA_OF_ASC_NODE": 117.9046, "ARG_OF_PERICENTER": 69.9977, "MEAN_ANOMALY": 293.4146, "EPHEMERIS_TYPE": 0, "CLASSIFICATION_TYPE": "U", "NORAD_CAT_ID": 31053, "ELEMENT_SET_NO": 999, "REV_AT_EPOCH": 93605, "BSTAR": 0.0012358635, "MEAN_MOTION_DOT": 1.661e-05, "MEAN_MOTION_DDOT": 0}, "tle": {"line1": "1 31053U 99025BEX 25356.10091077  .00001661  00000+0  12359-2 0  9998", "line2": "2 31053  98.7943 117.9046 0308825  69.9977 293.4146 13.75902052936051"}}, "geometry": {"type": "Point", "coordinates": [-73.73478190642646, -54.26053296298999]}}, {"type": "Feature", "properties": {"norad_id": 31054, "name": "FENGYUN 1C DEB", "group": "fengyun-1c-debris", "lat": -81.09901960643379, "lon": 112.10869664546217, "alt_km": 867.0418116439259, "timestamp": "2025-12-22T22:44:21.255795+00:00", "meta": {"OBJECT_NAME": "FENGYUN 1C DEB", "OBJECT_ID": "1999-025BEY", "EPOCH": "2025-12-21T12:11:26.141280", "MEAN_MOTION": 14.12174942, "ECCENTRICITY": 0.00108027, "INCLINATION": 98.6897, "RA_OF_ASC_NODE": 8.2697, "ARG_OF_PERICENTER": 97.717, "MEAN_ANOMALY": 56.1407, "EPHEMERIS_TYPE": 0, "CLASSIFICATION_TYPE": "U", "NORAD_CAT_ID": 31054, "ELEMENT_SET_NO": 999, "REV_AT_EPOCH": 96887, "BSTAR": 0.00014616788, "MEAN_MOTION_DOT": 2.26e-06, "MEAN_MOTION_DDOT": 0}, "tle": {"line1": "1 31054U 99025BEY 25355.50794145  .00000226  00000+0  14617-3 0  9994", "line2": "2 31054  98.6897   8.2697 0010802  97.7170  56.1407 14.12174942968872"}}, "geometry": {"type": "Point", "coordinates": [112.10869664546217, -81.09901960643379]}}, {"type": "Feature", "properties": {"norad_id": 31055, "name": "FENGYUN 1C DEB", "group": "fengyun-1c-debris", "lat": -34.091043608648846, "lon": 33.882841558310005, "alt_km": 862.0792279597017, "timestamp": "2025-12-22T22:44:21.255807+00:00", "meta": {"OBJECT_NAME": "FENGYUN 1C DEB", "OBJECT_ID": "1999-025BEZ", "EPOCH": "2025-12-20T01:21:05.010336", "MEAN_MOTION": 14.10385129, "ECCENTRICITY": 0.00241768, "INCLINATION": 98.7589, "RA_OF_ASC_NODE": 25.0773, "ARG_OF_PERICENTER": 250.5073, "MEAN_ANOMALY": 163.4034, "EPHEMERIS_TYPE": 0, "CLASSIFICATION_TYPE": "U", "NORAD_CAT_ID": 31055, "ELEMENT_SET_NO": 999, "REV_AT_EPOCH": 96225, "BSTAR": 0.00024178399, "MEAN_MOTION_DOT": 3.87e-06, "MEAN_MOTION_DDOT": 0}, "tle": {"line1": "1 31055U 99025BEZ 25354.05630799  .00000387  00000+0  24178-3 0  9999", "line2": "2 31055  98.7589  25.0773 0024176 250.5073 163.4034 14.10385129962257"}}, "geometry": {"type": "Point", "coordinates": [33.882841558310005, -34.091043608648846]}}]}